{"type": "FeatureCollection", "features": [ {"type": "Feature", "properties": {"norad_id": 29986, "name": "FENGYUN 1C DEB", "group": "fengyun-1c-debris", "lat": 67.59969705817794, "lon": 34.40011161005087, "alt_km": 785.3453305454859, "timestamp": "2025-12-16T03:53:27.328509+00:00", "meta": {"OBJECT_NAME": "FENGYUN 1C DEB", "OBJECT_ID": "1999-025LL", "EPOCH": "2025-12-15T04:10:11.587872", "MEAN_MOTION": 14.29239856, "ECCENTRICITY": 0.00227384, "INCLINATION": 99.3988, "RA_OF_ASC_NODE": 57.0292, "ARG_OF_PERICENTER": 350.335, "MEAN_ANOMALY": 36.3824, "EPHEMERIS_TYPE": 0, "CLASSIFICATION_TYPE": "U", "NORAD_CAT_ID": 29986, "ELEMENT_SET_NO": 999, "REV_AT_EPOCH": 97542, "BSTAR": 0.0011136481, "MEAN_MOTION_DOT": 2.789e-05, "MEAN_MOTION_DDOT": 0}, "tle": {"line1": "1 29986U 99025LL  25349.17374523  .00002789  00000+0  11136-2 0  9993", "line2": "2 29986  99.3988  57.0292 0022738 350.3350  36.3824 14.29239856975420"}}, "geometry": {"type": "Point", "coordinates": [34.40011161005087, 67.59969705817794]}}, {"type": "Feature", "properties": {"norad_id": 29987, "name": "FENGYUN 1C DEB", "group": "fengyun-1c-debris", "lat": -23.493583282641563, "lon": 58.22980028882831, "alt_km": 795.3019756955973, "timestamp": "2025-12-16T03:53:27.328519+00:00", "meta": {"OBJECT_NAME": "FENGYUN 1C DEB", "OBJECT_ID": "1999-025LM", "EPOCH": "2025-12-14T15:35:06.368064", "MEAN_MOTION": 14.14564513, "ECCENTRICITY": 0.00793079, "INCLINATION": 98.8981, "RA_OF_ASC_NODE": 240.6273, "ARG_OF_PERICENTER": 228.0685, "MEAN_ANOMALY": 196.6469, "EPHEMERIS_TYPE": 0, "CLASSIFICATION_TYPE": "U", "NORAD_CAT_ID": 29987, "ELEMENT_SET_NO": 999, "REV_AT_EPOCH": 96400, "BSTAR": 0.0022259708, "MEAN_MOTION_DOT": 4.362e-05, "MEAN_MOTION_DDOT": 0}, "tle": {"line1": "1 29987U 99025LM  25348.64937926  .00004362  00000+0  22260-2 0  9996", "line2": "2 29987  98.8981 240.6273 0079307 228.0685 196.6469 14.14564513964005"}}, "geometry": {"type": "Point", "coordinates": [58.22980028882831, -23.493583282641563]}}, {"type": "Feature", "properties": {"norad_id": 29988, "name": "FENGYUN 1C DEB", "group": "fengyun-1c-debris", "lat": -53.073867121355086, "lon": 105.92788021563103, "alt_km": 689.944517136395, "timestamp": "2025-12-16T03:53:27.328530+00:00", "meta": {"OBJECT_NAME": "FENGYUN 1C DEB", "OBJECT_ID": "1999-025LN", "EPOCH": "2025-12-15T06:42:28.558080", "MEAN_MOTION": 14.50421297, "ECCENTRICITY": 0.01204331, "INCLINATION": 98.6954, "RA_OF_ASC_NODE": 93.2669, "ARG_OF_PERICENTER": 10.5433, "MEAN_ANOMALY": 10.7949, "EPHEMERIS_TYPE": 0, "CLASSIFICATION_TYPE": "U", "NORAD_CAT_ID": 29988, "ELEMENT_SET_NO": 999, "REV_AT_EPOCH": 98104, "BSTAR": 0.00097200965, "MEAN_MOTION_DOT": 4.118e-05, "MEAN_MOTION_DDOT": 0}, "tle": {"line1": "1 29988U 99025LN  25349.27949720  .00004118  00000+0  97201-3 0  9999", "line2": "2 29988  98.6954  93.2669 0120433  10.5433  10.7949 14.50421297981040"}}, "geometry": {"type": "Point", "coordinates": [105.92788021563103, -53.073867121355086]}}, {"type": "Feature", "properties": {"norad_id": 29989, "name": "FENGYUN 1C DEB", "group": "fengyun-1c-debris", "lat": 20.779401144508604, "lon": 152.17803916562835, "alt_km": 759.8078545259623, "timestamp": "2025-12-16T03:53:27.328541+00:00", "meta": {"OBJECT_NAME": "FENGYUN 1C DEB", "OBJECT_ID": "1999-025LP", "EPOCH": "2025-12-15T05:24:54.259200", "MEAN_MOTION": 14.15820591, "ECCENTRICITY": 0.01233464, "INCLINATION": 98.668, "RA_OF_ASC_NODE": 327.9485, "ARG_OF_PERICENTER": 188.5116, "MEAN_ANOMALY": 240.4025, "EPHEMERIS_TYPE": 0, "CLASSIFICATION_TYPE": "U", "NORAD_CAT_ID": 29989, "ELEMENT_SET_NO": 999, "REV_AT_EPOCH": 97646, "BSTAR": 0.00015502875, "MEAN_MOTION_DOT": 2.85e-06, "MEAN_MOTION_DDOT": 0}, "tle": {"line1": "1 29989U 99025LP  25349.22562800  .00000285  00000+0  15503-3 0  9991", "line2": "2 29989  98.6680 327.9485 0123346 188.5116 240.4025 14.15820591976468"}}, "geometry": {"type": "Point", "coordinates": [152.17803916562835, 20.779401144508604]}}, {"type": "Feature", "properties": {"norad_id": 29992, "name": "FENGYUN 1C DEB", "group": "fengyun-1c-debris", "lat": -28.750371606110956, "lon": -9.960297694906286, "alt_km": 923.5511805039578, "timestamp": "2025-12-16T03:53:27.328551+00:00", "meta": {"OBJECT_NAME": "FENGYUN 1C DEB", "OBJECT_ID": "1999-025LS", "EPOCH": "2025-12-14T23:24:53.817696", "MEAN_MOTION": 14.1161226, "ECCENTRICITY": 0.00890025, "INCLINATION": 98.73, "RA_OF_ASC_NODE": 344.0496, "ARG_OF_PERICENTER": 161.3294, "MEAN_ANOMALY": 263.346, "EPHEMERIS_TYPE": 0, "CLASSIFICATION_TYPE": "U", "NORAD_CAT_ID": 29992, "ELEMENT_SET_NO": 999, "REV_AT_EPOCH": 97419, "BSTAR": 7.9356292e-05, "MEAN_MOTION_DOT": 1.07e-06, "MEAN_MOTION_DDOT": 0}, "tle": {"line1": "1 29992U 99025LS  25348.97562289  .00000107  00000+0  79356-4 0  9997", "line2": "2 29992  98.7300 344.0496 0089002 161.3294 263.3460 14.11612260974193"}}, "geometry": {"type": "Point", "coordinates": [-9.960297694906286, -28.750371606110956]}}, {"type": "Feature", "properties": {"norad_id": 29993, "name": "FENGYUN 1C DEB", "group": "fengyun-1c-debris", "lat": -68.42657886285771, "lon": -176.23821495441197, "alt_km": 856.8092848900633, "timestamp": "2025-12-16T03:53:27.328561+00:00", "meta": {"OBJECT_NAME": "FENGYUN 1C DEB", "OBJECT_ID": "1999-025LT", "EPOCH": "2025-12-15T01:07:24.040128", "MEAN_MOTION": 14.08148779, "ECCENTRICITY": 0.00384206, "INCLINATION": 98.7931, "RA_OF_ASC_NODE": 25.721, "ARG_OF_PERICENTER": 308.0795, "MEAN_ANOMALY": 51.6912, "EPHEMERIS_TYPE": 0, "CLASSIFICATION_TYPE": "U", "NORAD_CAT_ID": 29993, "ELEMENT_SET_NO": 999, "REV_AT_EPOCH": 97202, "BSTAR": 0.00013599478, "MEAN_MOTION_DOT": 1.9e-06, "MEAN_MOTION_DDOT": 0}, "tle": {"line1": "1 29993U 99025LT  25349.04680602  .00000190  00000+0  13599-3 0  9995", "line2": "2 29993  98.7931  25.7210 0038420 308.0795  51.6912 14.08148779972020"}}, "geometry": {"type": "Point", "coordinates": [-176.23821495441197, -68.42657886285771]}}, {"type": "Feature", "properties": {"norad_id": 29994, "name": "FENGYUN 1C DEB", "group": "fengyun-1c-debris", "lat": 64.85986494006217, "lon": -138.35416961740717, "alt_km": 877.7832701501502, "timestamp": "2025-12-16T03:53:27.328572+00:00", "meta": {"OBJECT_NAME": "FENGYUN 1C DEB", "OBJECT_ID": "1999-025LU", "EPOCH": "2025-12-15T08:50:31.158816", "MEAN_MOTION": 14.02644791, "ECCENTRICITY": 0.01296128, "INCLINATION": 98.8289, "RA_OF_ASC_NODE": 21.5355, "ARG_OF_PERICENTER": 206.2405, "MEAN_ANOMALY": 223.2146, "EPHEMERIS_TYPE": 0, "CLASSIFICATION_TYPE": "U", "NORAD_CAT_ID": 29994, "ELEMENT_SET_NO": 999, "REV_AT_EPOCH": 96763, "BSTAR": 7.0516689e-05, "MEAN_MOTION_DOT": 7.4e-07, "MEAN_MOTION_DDOT": 0}, "tle": {"line1": "1 29994U 99025LU  25349.36841619  .00000074  00000+0  70517-4 0  9993", "line2": "2 29994  98.8289  21.5355 0129612 206.2405 223.2146 14.02644791967639"}}, "geometry": {"type": "Point", "coordinates": [-138.35416961740717, 64.85986494006217]}}, {"type": "Feature", "properties": {"norad_id": 29996, "name": "FENGYUN 1C DEB", "group": "fengyun-1c-debris", "lat": 17.92997087075755, "lon": 24.612465990481965, "alt_km": 813.2155901699552, "timestamp": "2025-12-16T03:53:27.328582+00:00", "meta": {"OBJECT_NAME": "FENGYUN 1C DEB", "OBJECT_ID": "1999-025LW", "EPOCH": "2025-12-15T00:49:21.670176", "MEAN_MOTION": 14.09436413, "ECCENTRICITY": 0.0131514, "INCLINATION": 99.3038, "RA_OF_ASC_NODE": 26.4881, "ARG_OF_PERICENTER": 81.5534, "MEAN_ANOMALY": 338.5122, "EPHEMERIS_TYPE": 0, "CLASSIFICATION_TYPE": "U", "NORAD_CAT_ID": 29996, "ELEMENT_SET_NO": 999, "REV_AT_EPOCH": 96169, "BSTAR": 0.001415024, "MEAN_MOTION_DOT": 2.631e-05, "MEAN_MOTION_DDOT": 0}, "tle": {"line1": "1 29996U 99025LW  25349.03427859  .00002631  00000+0  14150-2 0  9995", "line2": "2 29996  99.3038  26.4881 0131514  81.5534 338.5122 14.09436413961699"}}, "geometry": {"type": "Point", "coordinates": [24.612465990481965, 17.92997087075755]}}, {"type": "Feature", "properties": {"norad_id": 29997, "name": "FENGYUN 1C DEB", "group": "fengyun-1c-debris", "lat": -70.64093959830637, "lon": 26.94188130432594, "alt_km": 847.637068138074, "timestamp": "2025-12-16T03:53:27.328592+00:00", "meta": {"OBJECT_NAME": "FENGYUN 1C DEB", "OBJECT_ID": "1999-025LX", "EPOCH": "2025-12-15T00:54:32.262624", "MEAN_MOTION": 14.00883331, "ECCENTRICITY": 0.00802072, "INCLINATION": 98.8819, "RA_OF_ASC_NODE": 359.4222, "ARG_OF_PERICENTER": 320.9658, "MEAN_ANOMALY": 60.1339, "EPHEMERIS_TYPE": 0, "CLASSIFICATION_TYPE": "U", "NORAD_CAT_ID": 29997, "ELEMENT_SET_NO": 999, "REV_AT_EPOCH": 96422, "BSTAR": 0.00086254598, "MEAN_MOTION_DOT": 1.282e-05, "MEAN_MOTION_DDOT": 0}, "tle": {"line1": "1 29997U 99025LX  25349.03787341  .00001282  00000+0  86255-3 0  9998", "line2": "2 29997  98.8819 359.4222 0080207 320.9658  60.1339 14.00883331964224"}}, "geometry": {"type": "Point", "coordinates": [26.94188130432594, -70.64093959830637]}}, {"type": "Feature", "properties": {"norad_id": 29998, "name": "FENGYUN 1C DEB", "group": "fengyun-1c-debris", "lat": 20.764717628412594, "lon": -125.65111554098297, "alt_km": 798.62799650544, "timestamp": "2025-12-16T03:53:27.328603+00:00", "meta": {"OBJECT_NAME": "FENGYUN 1C DEB", "OBJECT_ID": "1999-025LY", "EPOCH": "2025-12-15T03:36:57.684096", "MEAN_MOTION": 14.28556347, "ECCENTRICITY": 0.00048484, "INCLINATION": 99.3066, "RA_OF_ASC_NODE": 49.7063, "ARG_OF_PERICENTER": 291.2214, "MEAN_ANOMALY": 68.8448, "EPHEMERIS_TYPE": 0, "CLASSIFICATION_TYPE": "U", "NORAD_CAT_ID": 29998, "ELEMENT_SET_NO": 999, "REV_AT_EPOCH": 97909, "BSTAR": 0.00074592662, "MEAN_MOTION_DOT": 1.821e-05, "MEAN_MOTION_DDOT": 0}, "tle": {"line1": "1 29998U 99025LY  25349.15066764  .00001821  00000+0  74593-3 0  9992", "line2": "2 29998  99.3066  49.7063 0004848 291.2214  68.8448 14.28556347979093"}}, "geometry": {"type": "Point", "coordinates": [-125.65111554098297, 20.764717628412594]}}]}